start=new Date('2023-04-09T00:00:00.000Z').valueOf();
sats=[{"MEAN_ANOMALY":"263.6266","TLE_LINE2":"2 44937  53.0531  73.6671 0001400  96.4882 263.6266 15.06421539179406","RA_OF_ASC_NODE":"73.6671","APOAPSIS":"548.117","BSTAR":"0.00100520000000","ELEMENT_SET_NO":"999","SEMIMAJOR_AXIS":"6925.283","INCLINATION":"53.0531","CLASSIFICATION_TYPE":"U","FILE":"3883527","MEAN_ELEMENT_THEORY":"SGP4","NORAD_CAT_ID":"44937","EPHEMERIS_TYPE":"0","PERIOD":"95.591","OBJECT_NAME":"STARLINK-1079","LAUNCH_DATE":"2020-01-07","SITE":"AFETR","EPOCH":"2023-04-08T08:02:30.990624","GP_ID":"229726721","ECCENTRICITY":"0.00014000","RCS_SIZE":"LARGE","TLE_LINE1":"1 44937U 20001Z   23098.33508091  .00014731  00000-0  10052-2 0  9997","MEAN_MOTION":"15.06421539","TIME_SYSTEM":"UTC","PERIAPSIS":"546.178","MEAN_MOTION_DDOT":"0.0000000000000","CENTER_NAME":"EARTH","REV_AT_EPOCH":"17940","COUNTRY_CODE":"US","ARG_OF_PERICENTER":"96.4882","DECAY_DATE":null,"MEAN_MOTION_DOT":"0.00014731","OBJECT_TYPE":"PAYLOAD","OBJECT_ID":"2020-001Z","REF_FRAME":"TEME"},{"EPOCH":"2023-04-08T08:50:15.964512","RCS_SIZE":"LARGE","ECCENTRICITY":"0.00013560","GP_ID":"229726973","PERIOD":"95.590","EPHEMERIS_TYPE":"0","OBJECT_NAME":"STARLINK-1082","LAUNCH_DATE":"2020-01-07","SITE":"AFETR","INCLINATION":"53.0545","SEMIMAJOR_AXIS":"6925.222","CLASSIFICATION_TYPE":"U","FILE":"3883527","MEAN_ELEMENT_THEORY":"SGP4","NORAD_CAT_ID":"44938","MEAN_ANOMALY":"263.5795","TLE_LINE2":"2 44938  53.0545  73.5189 0001356  96.5348 263.5795 15.06441172179404","RA_OF_ASC_NODE":"73.5189","ELEMENT_SET_NO":"999","BSTAR":"0.00122450000000","APOAPSIS":"548.026","OBJECT_TYPE":"PAYLOAD","OBJECT_ID":"2020-001AA","REF_FRAME":"TEME","REV_AT_EPOCH":"17940","COUNTRY_CODE":"US","CENTER_NAME":"EARTH","ARG_OF_PERICENTER":"96.5348","DECAY_DATE":null,"MEAN_MOTION_DOT":"0.00018025","PERIAPSIS":"546.148","MEAN_MOTION_DDOT":"0.0000000000000","TLE_LINE1":"1 44938U 20001AA  23098.36824033  .00018025  00000-0  12245-2 0  9994","TIME_SYSTEM":"UTC","MEAN_MOTION":"15.06441172"},{"REF_FRAME":"TEME","OBJECT_ID":"2020-001AB","OBJECT_TYPE":"PAYLOAD","MEAN_MOTION_DOT":"0.00009300","DECAY_DATE":null,"ARG_OF_PERICENTER":"83.9095","COUNTRY_CODE":"US","REV_AT_EPOCH":"17944","CENTER_NAME":"EARTH","MEAN_MOTION_DDOT":"0.0000000000000","PERIAPSIS":"545.936","TIME_SYSTEM":"UTC","MEAN_MOTION":"15.06415549","TLE_LINE1":"1 44939U 20001AB  23098.64099279  .00009300  00000-0  64211-3 0  9999","RCS_SIZE":"LARGE","GP_ID":"229738696","ECCENTRICITY":"0.00017760","EPOCH":"2023-04-08T15:23:01.777056","SITE":"AFETR","OBJECT_NAME":"STARLINK-1083","LAUNCH_DATE":"2020-01-07","PERIOD":"95.591","EPHEMERIS_TYPE":"0","MEAN_ELEMENT_THEORY":"SGP4","NORAD_CAT_ID":"44939","CLASSIFICATION_TYPE":"U","FILE":"3883716","INCLINATION":"53.0532","SEMIMAJOR_AXIS":"6925.301","ELEMENT_SET_NO":"999","BSTAR":"0.00064211000000","APOAPSIS":"548.396","RA_OF_ASC_NODE":"72.2934","TLE_LINE2":"2 44939  53.0532  72.2934 0001776  83.9095 276.2096 15.06415549179448","MEAN_ANOMALY":"276.2096"},{"COUNTRY_CODE":"US","REV_AT_EPOCH":"17944","CENTER_NAME":"EARTH","ARG_OF_PERICENTER":"91.6199","DECAY_DATE":null,"MEAN_MOTION_DOT":"0.00003986","OBJECT_ID":"2020-001AC","OBJECT_TYPE":"PAYLOAD","REF_FRAME":"TEME","TLE_LINE1":"1 44940U 20001AC  23098.65207400  .00003986  00000-0  28632-3 0  9990","TIME_SYSTEM":"UTC","MEAN_MOTION":"15.06403736","PERIAPSIS":"546.230","MEAN_MOTION_DDOT":"0.0000000000000","PERIOD":"95.592","EPHEMERIS_TYPE":"0","LAUNCH_DATE":"2020-01-07","OBJECT_NAME":"STARLINK-1091","SITE":"AFETR","EPOCH":"2023-04-08T15:38:59.193600","RCS_SIZE":"LARGE","ECCENTRICITY":"0.00014030","GP_ID":"229738716","MEAN_ANOMALY":"268.4951","TLE_LINE2":"2 44940  53.0534  72.2435 0001403  91.6199 268.4951 15.06403736179444","RA_OF_ASC_NODE":"72.2435","BSTAR":"0.00028632000000","ELEMENT_SET_NO":"999","APOAPSIS":"548.174","SEMIMAJOR_AXIS":"6925.337","INCLINATION":"53.0534","FILE":"3883717","CLASSIFICATION_TYPE":"U","MEAN_ELEMENT_THEORY":"SGP4","NORAD_CAT_ID":"44940"},{"TLE_LINE2":"2 44941  53.0533  73.6337 0001454  79.7319 280.3834 15.06420321179405","MEAN_ANOMALY":"280.3834","BSTAR":"0.00130190000000","ELEMENT_SET_NO":"999","APOAPSIS":"548.158","RA_OF_ASC_NODE":"73.6337","CLASSIFICATION_TYPE":"U","FILE":"3883527","SEMIMAJOR_AXIS":"6925.286","INCLINATION":"53.0533","MEAN_ELEMENT_THEORY":"SGP4","NORAD_CAT_ID":"44941","OBJECT_NAME":"STARLINK-1094","LAUNCH_DATE":"2020-01-07","PERIOD":"95.591","EPHEMERIS_TYPE":"0","SITE":"AFETR","EPOCH":"2023-04-08T08:13:07.646304","RCS_SIZE":"LARGE","GP_ID":"229726222","ECCENTRICITY":"0.00014540","TLE_LINE1":"1 44941U 20001AD  23098.34244961  .00019174  00000-0  13019-2 0  9998","TIME_SYSTEM":"UTC","MEAN_MOTION":"15.06420321","PERIAPSIS":"546.144","MEAN_MOTION_DDOT":"0.0000000000000","ARG_OF_PERICENTER":"79.7319","COUNTRY_CODE":"US","REV_AT_EPOCH":"17940","CENTER_NAME":"EARTH","MEAN_MOTION_DOT":"0.00019174","DECAY_DATE":null,"OBJECT_TYPE":"PAYLOAD","OBJECT_ID":"2020-001AD","REF_FRAME":"TEME"},{"FILE":"3883527","CLASSIFICATION_TYPE":"U","SEMIMAJOR_AXIS":"6884.263","INCLINATION":"53.0517","MEAN_ELEMENT_THEORY":"SGP4","NORAD_CAT_ID":"44942","TLE_LINE2":"2 44942  53.0517  61.6857 0005420  54.3513 305.7986 15.19905404179576","MEAN_ANOMALY":"305.7986","ELEMENT_SET_NO":"999","BSTAR":"0.00048101000000","APOAPSIS":"509.860","RA_OF_ASC_NODE":"61.6857","EPOCH":"2023-04-08T07:05:40.070688","RCS_SIZE":"LARGE","GP_ID":"229727473","ECCENTRICITY":"0.00054200","OBJECT_NAME":"STARLINK-1096","LAUNCH_DATE":"2020-01-07","PERIOD":"94.743","EPHEMERIS_TYPE":"0","SITE":"AFETR","PERIAPSIS":"502.397","MEAN_MOTION_DDOT":"0.0000000000000","TLE_LINE1":"1 44942U 20001AE  23098.29560267  .00010156  00000-0  48101-3 0  9995","TIME_SYSTEM":"UTC","MEAN_MOTION":"15.19905404","OBJECT_TYPE":"PAYLOAD","OBJECT_ID":"2020-001AE","REF_FRAME":"TEME","ARG_OF_PERICENTER":"54.3513","COUNTRY_CODE":"US","REV_AT_EPOCH":"17957","CENTER_NAME":"EARTH","MEAN_MOTION_DOT":"0.00010156","DECAY_DATE":null},{"TLE_LINE1":"1 44943U 20001AF  23098.30558294  .00014417  00000-0  98386-3 0  9999","MEAN_MOTION":"15.06434099","TIME_SYSTEM":"UTC","PERIAPSIS":"546.034","MEAN_MOTION_DDOT":"0.0000000000000","CENTER_NAME":"EARTH","REV_AT_EPOCH":"17939","COUNTRY_CODE":"US","ARG_OF_PERICENTER":"96.4366","DECAY_DATE":null,"MEAN_MOTION_DOT":"0.00014417","OBJECT_ID":"2020-001AF","OBJECT_TYPE":"PAYLOAD","REF_FRAME":"TEME","MEAN_ANOMALY":"263.6800","TLE_LINE2":"2 44943  53.0528  73.7989 0001553  96.4366 263.6800 15.06434099179395","RA_OF_ASC_NODE":"73.7989","APOAPSIS":"548.185","ELEMENT_SET_NO":"999","BSTAR":"0.00098386000000","INCLINATION":"53.0528","SEMIMAJOR_AXIS":"6925.244","CLASSIFICATION_TYPE":"U","FILE":"3883527","NORAD_CAT_ID":"44943","MEAN_ELEMENT_THEORY":"SGP4","EPHEMERIS_TYPE":"0","PERIOD":"95.590","OBJECT_NAME":"STARLINK-1100","LAUNCH_DATE":"2020-01-07","SITE":"AFETR","EPOCH":"2023-04-08T07:20:02.366016","GP_ID":"229727220","ECCENTRICITY":"0.00015530","RCS_SIZE":"LARGE"},{"SITE":"AFETR","LAUNCH_DATE":"2020-01-07","OBJECT_NAME":"STARLINK-1108","EPHEMERIS_TYPE":"0","PERIOD":"95.590","GP_ID":"229726472","ECCENTRICITY":"0.00014020","RCS_SIZE":"LARGE","EPOCH":"2023-04-08T08:29:02.092416","APOAPSIS":"548.070","ELEMENT_SET_NO":"999","BSTAR":"0.00104770000000","RA_OF_ASC_NODE":"73.5838","TLE_LINE2":"2 44944  53.0542  73.5838 0001402  93.9254 266.1895 15.06437447179408","MEAN_ANOMALY":"266.1895","NORAD_CAT_ID":"44944","MEAN_ELEMENT_THEORY":"SGP4","CLASSIFICATION_TYPE":"U","FILE":"3883527","INCLINATION":"53.0542","SEMIMAJOR_AXIS":"6925.234","MEAN_MOTION_DOT":"0.00015374","DECAY_DATE":null,"ARG_OF_PERICENTER":"93.9254","CENTER_NAME":"EARTH","REV_AT_EPOCH":"17940","COUNTRY_CODE":"US","REF_FRAME":"TEME","OBJECT_TYPE":"PAYLOAD","OBJECT_ID":"2020-001AG","MEAN_MOTION":"15.06437447","TIME_SYSTEM":"UTC","TLE_LINE1":"1 44944U 20001AG  23098.35349644  .00015374  00000-0  10477-2 0  9999","MEAN_MOTION_DDOT":"0.0000000000000","PERIAPSIS":"546.128"},{"SITE":"AFETR","LAUNCH_DATE":"2020-01-07","OBJECT_NAME":"STARLINK-1109","PERIOD":"95.590","EPHEMERIS_TYPE":"0","RCS_SIZE":"LARGE","GP_ID":"229726722","ECCENTRICITY":"0.00018680","EPOCH":"2023-04-08T07:35:58.051104","BSTAR":"0.00101740000000","ELEMENT_SET_NO":"999","APOAPSIS":"548.420","RA_OF_ASC_NODE":"73.7488","TLE_LINE2":"2 44945  53.0532  73.7488 0001868  99.8068 260.3132 15.06428323179396","MEAN_ANOMALY":"260.3132","MEAN_ELEMENT_THEORY":"SGP4","NORAD_CAT_ID":"44945","CLASSIFICATION_TYPE":"U","FILE":"3883527","INCLINATION":"53.0532","SEMIMAJOR_AXIS":"6925.262","MEAN_MOTION_DOT":"0.00014917","DECAY_DATE":null,"ARG_OF_PERICENTER":"99.8068","REV_AT_EPOCH":"17939","COUNTRY_CODE":"US","CENTER_NAME":"EARTH","REF_FRAME":"TEME","OBJECT_TYPE":"PAYLOAD","OBJECT_ID":"2020-001AH","TIME_SYSTEM":"UTC","MEAN_MOTION":"15.06428323","TLE_LINE1":"1 44945U 20001AH  23098.31664411  .00014917  00000-0  10174-2 0  9994","MEAN_MOTION_DDOT":"0.0000000000000","PERIAPSIS":"545.833"},{"OBJECT_TYPE":"PAYLOAD","OBJECT_ID":"2020-001AJ","REF_FRAME":"TEME","ARG_OF_PERICENTER":"137.1647","COUNTRY_CODE":"US","REV_AT_EPOCH":"18002","CENTER_NAME":"EARTH","MEAN_MOTION_DOT":"0.00086986","DECAY_DATE":null,"PERIAPSIS":"467.204","MEAN_MOTION_DDOT":"0.0000000000000","TLE_LINE1":"1 44946U 20001AJ  23098.76961453  .00086986  00000-0  27815-2 0  9995","TIME_SYSTEM":"UTC","MEAN_MOTION":"15.31697514","EPOCH":"2023-04-08T18:28:14.695392","RCS_SIZE":"LARGE","ECCENTRICITY":"0.00051770","GP_ID":"229738747","OBJECT_NAME":"STARLINK-1110","LAUNCH_DATE":"2020-01-07","PERIOD":"94.013","EPHEMERIS_TYPE":"0","SITE":"AFETR","CLASSIFICATION_TYPE":"U","FILE":"3883721","SEMIMAJOR_AXIS":"6848.884","INCLINATION":"53.0155","NORAD_CAT_ID":"44946","MEAN_ELEMENT_THEORY":"SGP4","TLE_LINE2":"2 44946  53.0155  28.7707 0005177 137.1647 222.9757 15.31697514180025","MEAN_ANOMALY":"222.9757","ELEMENT_SET_NO":"999","BSTAR":"0.00278150000000","APOAPSIS":"474.295","RA_OF_ASC_NODE":"28.7707"}];
